{
  "norad_id": 63495,
  "name": "STARLINK-33845",
  "history": [
    {
      "epoch": "2026-04-14T21:13:16.686624Z",
      "apogee_km": 476.33821071868715,
      "perigee_km": 474.0505687008017,
      "latitude_deg": 1.786209829934519e-05,
      "longitude_deg": 170.2750454848911,
      "height_km": 476.2224020172131,
      "semi_major_axis_km": 6853.331389709744,
      "eccentricity": 0.0001669,
      "inclination_deg": 53.161,
      "raan_deg": 331.6488,
      "arg_perigee_deg": 96.5449,
      "mean_anomaly_deg": 263.5742,
      "mean_motion_rev_day": 15.30206926
    },
    {
      "epoch": "2026-04-15T20:44:04.492896Z",
      "apogee_km": 476.0119725536879,
      "perigee_km": 474.40006627552066,
      "latitude_deg": -2.2833874369732196e-05,
      "longitude_deg": 172.05966819327463,
      "height_km": 476.213263005481,
      "semi_major_axis_km": 6853.343019414604,
      "eccentricity": 0.0001176,
      "inclination_deg": 53.1608,
      "raan_deg": 327.0983,
      "arg_perigee_deg": 97.7682,
      "mean_anomaly_deg": 262.3452,
      "mean_motion_rev_day": 15.30203031
    },
    {
      "epoch": "2026-04-16T07:42:26.901216Z",
      "apogee_km": 476.03000908782633,
      "perigee_km": 474.407134488426,
      "latitude_deg": -1.5508749090422495e-05,
      "longitude_deg": 4.891165901414185,
      "height_km": 476.1635568970256,
      "semi_major_axis_km": 6853.355571788125,
      "eccentricity": 0.0001184,
      "inclination_deg": 53.1607,
      "raan_deg": 324.9738,
      "arg_perigee_deg": 93.3003,
      "mean_anomaly_deg": 266.8133,
      "mean_motion_rev_day": 15.30198827
    },
    {
      "epoch": "2026-04-17T21:19:43.744800Z",
      "apogee_km": 475.72867444153053,
      "perigee_km": 474.7435705889002,
      "latitude_deg": 4.680866010658734e-05,
      "longitude_deg": 151.74467928724096,
      "height_km": 476.2334998917526,
      "semi_major_axis_km": 6853.373122515215,
      "eccentricity": 7.187e-05,
      "inclination_deg": 53.1591,
      "raan_deg": 317.6925,
      "arg_perigee_deg": 101.5543,
      "mean_anomaly_deg": 258.5539,
      "mean_motion_rev_day": 15.30192949
    },
    {
      "epoch": "2026-04-18T20:50:31.608096Z",
      "apogee_km": 476.0524687505331,
      "perigee_km": 474.3089847208512,
      "latitude_deg": -3.551408686832849e-05,
      "longitude_deg": 153.53083094485328,
      "height_km": 476.0646204537798,
      "semi_major_axis_km": 6853.317726735691,
      "eccentricity": 0.0001272,
      "inclination_deg": 53.1583,
      "raan_deg": 313.1438,
      "arg_perigee_deg": 89.0794,
      "mean_anomaly_deg": 271.0352,
      "mean_motion_rev_day": 15.30211502
    },
    {
      "epoch": "2026-04-19T20:21:19.690848Z",
      "apogee_km": 475.98158007152324,
      "perigee_km": 474.46972827001355,
      "latitude_deg": -3.370102103260987e-05,
      "longitude_deg": 155.31382719666735,
      "height_km": 476.0474644167298,
      "semi_major_axis_km": 6853.362654170768,
      "eccentricity": 0.0001103,
      "inclination_deg": 53.1577,
      "raan_deg": 308.5928,
      "arg_perigee_deg": 84.2102,
      "mean_anomaly_deg": 275.9024,
      "mean_motion_rev_day": 15.30196455
    },
    {
      "epoch": "2026-04-19T20:21:19.691712Z",
      "apogee_km": 475.98137447064346,
      "perigee_km": 474.4699338708933,
      "latitude_deg": 4.9576792611068285e-05,
      "longitude_deg": 155.3138856374529,
      "height_km": 476.0474733995742,
      "semi_major_axis_km": 6853.362654170768,
      "eccentricity": 0.00011027,
      "inclination_deg": 53.1577,
      "raan_deg": 308.5928,
      "arg_perigee_deg": 84.2102,
      "mean_anomaly_deg": 275.9025,
      "mean_motion_rev_day": 15.30196455
    },
    {
      "epoch": "2026-04-21T19:22:55.396704Z",
      "apogee_km": 475.8653891013364,
      "perigee_km": 474.60573922404365,
      "latitude_deg": -3.5615576111635174e-05,
      "longitude_deg": 158.88013363505254,
      "height_km": 475.900613812283,
      "semi_major_axis_km": 6853.37256416269,
      "eccentricity": 9.19e-05,
      "inclination_deg": 53.1576,
      "raan_deg": 299.4892,
      "arg_perigee_deg": 68.2552,
      "mean_anomaly_deg": 291.8546,
      "mean_motion_rev_day": 15.30193136
    },
    {
      "epoch": "2026-04-22T18:53:43.520928Z",
      "apogee_km": 476.0196902703001,
      "perigee_km": 474.411893705299,
      "latitude_deg": 3.0710008157263665e-05,
      "longitude_deg": 160.66540333172173,
      "height_km": 476.0446892226389,
      "semi_major_axis_km": 6853.352791987799,
      "eccentricity": 0.0001173,
      "inclination_deg": 53.1601,
      "raan_deg": 294.9406,
      "arg_perigee_deg": 85.053,
      "mean_anomaly_deg": 275.0605,
      "mean_motion_rev_day": 15.30199758
    },
    {
      "epoch": "2026-04-22T22:01:49.723104Z",
      "apogee_km": 475.9569022669175,
      "perigee_km": 474.4697252488313,
      "latitude_deg": -3.873120800194461e-05,
      "longitude_deg": 112.90205669546363,
      "height_km": 475.962574070923,
      "semi_major_axis_km": 6853.350313757874,
      "eccentricity": 0.0001085,
      "inclination_deg": 53.1592,
      "raan_deg": 294.3319,
      "arg_perigee_deg": 78.4394,
      "mean_anomaly_deg": 281.6728,
      "mean_motion_rev_day": 15.30200588
    },
    {
      "epoch": "2026-04-24T16:21:15.996096Z",
      "apogee_km": 475.7025883446149,
      "perigee_km": 474.60743228136744,
      "latitude_deg": -8.739937991416114e-06,
      "longitude_deg": -171.88657781704921,
      "height_km": 476.17296294621974,
      "semi_major_axis_km": 6853.292010312991,
      "eccentricity": 7.99e-05,
      "inclination_deg": 53.1592,
      "raan_deg": 286.1409,
      "arg_perigee_deg": 102.584,
      "mean_anomaly_deg": 257.525,
      "mean_motion_rev_day": 15.30220115
    },
    {
      "epoch": "2026-04-25T20:34:13.518624Z",
      "apogee_km": 475.9042307367372,
      "perigee_km": 474.4759973661685,
      "latitude_deg": 2.1055311205176884e-05,
      "longitude_deg": 118.25617778505412,
      "height_km": 476.0324561996088,
      "semi_major_axis_km": 6853.327114051453,
      "eccentricity": 0.0001042,
      "inclination_deg": 53.1594,
      "raan_deg": 280.6821,
      "arg_perigee_deg": 85.5037,
      "mean_anomaly_deg": 274.6083,
      "mean_motion_rev_day": 15.30208358
    },
    {
      "epoch": "2026-04-26T15:22:52.200480Z",
      "apogee_km": 476.51480673532205,
      "perigee_km": 473.8477693903387,
      "latitude_deg": 6.025753929689423e-05,
      "longitude_deg": -168.321596904689,
      "height_km": 476.31394460891335,
      "semi_major_axis_km": 6853.31828806283,
      "eccentricity": 0.00019458,
      "inclination_deg": 53.1597,
      "raan_deg": 277.038,
      "arg_perigee_deg": 100.1734,
      "mean_anomaly_deg": 259.9487,
      "mean_motion_rev_day": 15.30211314
    },
    {
      "epoch": "2026-04-27T19:35:49.589088Z",
      "apogee_km": 475.9971385824783,
      "perigee_km": 474.41401644707184,
      "latitude_deg": -1.6410905567132386e-05,
      "longitude_deg": 121.82244011135181,
      "height_km": 475.9725219611928,
      "semi_major_axis_km": 6853.342577514775,
      "eccentricity": 0.0001155,
      "inclination_deg": 53.1597,
      "raan_deg": 271.58,
      "arg_perigee_deg": 80.4532,
      "mean_anomaly_deg": 279.6599,
      "mean_motion_rev_day": 15.30203179
    },
    {
      "epoch": "2026-04-28T19:06:37.575072Z",
      "apogee_km": 475.9687054300239,
      "perigee_km": 474.4417807782602,
      "latitude_deg": -2.7746433298087794e-05,
      "longitude_deg": 123.60183265566191,
      "height_km": 476.1280661624681,
      "semi_major_axis_km": 6853.342243104142,
      "eccentricity": 0.0001114,
      "inclination_deg": 53.162,
      "raan_deg": 267.025,
      "arg_perigee_deg": 91.8251,
      "mean_anomaly_deg": 268.2877,
      "mean_motion_rev_day": 15.30203291
    }
  ]
}